OBJECT_NAME,OBJECT_ID,EPOCH,MEAN_MOTION,ECCENTRICITY,INCLINATION,RA_OF_ASC_NODE,ARG_OF_PERICENTER,MEAN_ANOMALY,EPHEMERIS_TYPE,CLASSIFICATION_TYPE,NORAD_CAT_ID,ELEMENT_SET_NO,REV_AT_EPOCH,BSTAR,MEAN_MOTION_DOT,MEAN_MOTION_DDOT
HST,1990-037B,2026-07-22T05:08:13.927776,15.31110914,.00020355,28.4723,201.1073,171.5650,188.4980,0,U,20580,999,79394,.17637821E-3,.5689E-4,0
POLAR,1996-013A,2026-07-21T16:44:45.504096,1.29846014,.65050166,79.9017,226.6420,207.8917,92.1661,0,U,23802,999,14530,0,.193E-5,0
SWAS,1998-071A,2026-07-22T03:09:57.591648,15.09778765,.0007339,69.8955,137.3922,222.5731,137.4865,0,U,25560,999,50254,.20576141E-3,.3227E-4,0
CXO,1999-040B,2026-07-25T09:37:23.475360,0.37796842,.77734577,56.6765,115.6642,309.9148,0.4716,0,U,25867,999,1746,0,.689E-5,0
XMM-NEWTON,1999-066A,2026-07-24T05:58:43.881600,0.50127611,.46637907,64.2866,282.5076,64.2318,0.0628,0,U,25989,999,2318,0,.48E-6,0
TERRA,1999-068A,2026-07-22T06:54:15.258240,14.61127534,.00036359,97.9436,251.4387,108.9673,322.8872,0,U,25994,999,41473,.63829514E-4,.27E-5,0
CLUSTER II-FM7 (SAMBA),2000-041A,2026-07-20T14:26:37.417344,0.44850593,.90917143,149.8020,56.9135,274.4939,359.4480,0,U,26410,999,2046,0,.10308E-3,-.3041523E-5
CLUSTER II-FM8 (TANGO),2000-045B,2026-07-21T04:54:51.498144,0.44427498,.90962151,149.9916,58.1960,275.6329,2.0911,0,U,26464,999,2046,0,.10744E-3,-.2728858E-5
ODIN,2001-007A,2026-07-22T02:18:42.187104,15.94340343,.00045746,97.3694,246.6856,165.2192,194.9218,0,U,26702,999,39492,.16232712E-2,.602498E-2,.15102514E-3
TIMED,2001-055B,2026-07-21T23:58:08.879232,14.95355496,.00023773,74.0673,164.9225,292.8552,67.2381,0,U,26998,999,33602,.95930434E-4,.1019E-4,0
CORIOLIS,2003-001A,2026-07-22T00:09:48.675168,14.19953324,.00151344,98.7139,209.3614,110.9935,249.2862,0,U,27640,999,21916,.61467108E-4,.87E-6,0
SORCE,2003-004A,2026-07-21T22:31:20.904096,15.03867162,.00186349,39.9919,63.3810,299.6822,60.2117,0,U,27651,999,27713,.1680094E-3,.2209E-4,0
MOST,2003-031D,2026-07-21T00:02:24.230112,14.21328536,.00104208,98.7055,209.2568,149.0494,211.1300,0,U,27843,999,19551,.34027539E-4,.31E-6,0
SCISAT 1,2003-036A,2026-07-22T03:18:44.165952,14.81484604,.00070061,73.9301,101.9005,168.2411,191.8931,0,U,27858,999,23662,.6417372E-4,.466E-5,0
SWIFT,2004-047A,2026-07-22T07:42:42.950016,15.71794392,.00027095,20.5517,273.1802,102.2547,257.8203,0,U,28485,999,19239,.47664337E-3,.66195E-3,0
HINODE (SOLAR-B),2006-041A,2026-07-22T00:00:23.762592,14.68664645,.00176209,98.0548,218.6399,172.7614,187.3849,0,U,29479,999,5998,.104629E-3,.561E-5,0
SHIJIAN-6 02A (SJ-6 02A),2006-046A,2026-07-22T05:54:03.594816,15.17297813,.00037858,97.6349,244.5802,48.0505,312.1051,0,U,29505,999,7758,.23623283E-3,.4639E-4,0
SHIJIAN-6 02B (SJ-6 02B),2006-046B,2026-07-22T08:02:31.387200,15.01444637,.0012539,97.7144,232.1755,310.2880,49.7247,0,U,29506,999,7601,.39938104E-4,.455E-5,0
FGRST (GLAST),2008-029A,2026-07-21T17:36:43.552224,15.24102761,.00081749,25.5828,324.5793,17.8617,342.2208,0,U,33053,999,96,.94393271E-4,.2698E-4,0
SDO,2010-005A,2026-07-21T04:42:27.771264,1.00277625,.00016475,34.7200,85.8242,43.2128,138.3850,0,U,36395,999,6040,0,-.97E-6,0
CRYOSAT 2,2010-013A,2026-07-22T05:32:21.380064,14.51899782,.00024958,92.0353,285.8208,98.8342,261.3148,0,U,36508,999,86316,.15504407E-4,.65E-6,0
X-SAT,2011-015C,2026-07-22T06:11:22.498656,14.25215801,.00128275,98.3541,178.6152,237.8422,122.1514,0,U,37389,999,79267,.11673231E-3,.233E-5,0
GCOM-W1 (SHIZUKU),2012-025A,2026-07-21T20:07:41.906208,14.57094315,.00012704,98.2024,142.8702,80.0845,291.5848,0,U,38337,999,75408,.8826837E-4,.352E-5,0
NUSTAR,2012-031A,2026-07-22T08:00:01.999872,15.09079316,.00092162,6.0263,130.4275,269.4928,103.9522,0,U,38358,999,130,.12277161E-2,.20982E-3,0
NEOSSAT,2013-009D,2026-07-22T06:16:52.012704,14.35837329,.00118292,98.4196,22.4634,137.4448,222.7657,0,U,39089,999,70177,.53848724E-4,.113E-5,0
BRITE-AUSTRIA,2013-009F,2026-07-22T00:48:50.316480,14.36554513,.00111077,98.4015,21.6105,131.8384,228.3753,0,U,39091,999,70205,.62805575E-4,.142E-5,0
IRIS,2013-033A,2026-07-22T02:44:24.891072,14.85946768,.0023806,97.9318,42.2810,201.5744,158.4470,0,U,39197,999,70556,.10068307E-3,.827E-5,0
HISAKI (SPRINT-A),2013-049A,2026-07-21T23:08:31.246656,13.55547184,.01369489,29.7219,43.1992,298.7227,59.9644,0,U,39253,999,63614,.45225379E-4,.99E-6,0
CASSIOPE,2013-055A,2026-07-22T05:26:25.685952,15.27662734,.02816817,80.9138,24.0679,303.9877,53.4879,0,U,39265,999,67301,.23374423E-3,.21795E-3,-.46075E-6
STSAT-3,2013-066G,2026-07-22T06:26:10.525632,15.02922219,.00087213,97.6221,172.5910,276.3559,83.6673,0,U,39422,999,68947,.3740039E-3,.4966E-4,0
