HST                     
1 20580U 90037B   26203.21405009  .00005689  00000+0  17638-3 0  9993
2 20580  28.4723 201.1073 0002035 171.5650 188.4980 15.31110914793948
POLAR                   
1 23802U 96013A   26202.69774889  .00000193  00000+0  00000+0 0  9995
2 23802  79.9017 226.6420 6505016 207.8917  92.1661  1.29846014145302
SWAS                    
1 25560U 98071A   26203.13191657  .00003227  00000+0  20576-3 0  9995
2 25560  69.8955 137.3922 0007339 222.5731 137.4865 15.09778765502548
CXO                     
1 25867U 99040B   26206.40096615  .00000689  00000+0  00000+0 0  9998
2 25867  56.6765 115.6642 7773457 309.9148   0.4716  0.37796842 17466
XMM-NEWTON              
1 25989U 99066A   26205.24911900  .00000048  00000+0  00000+0 0  9994
2 25989  64.2866 282.5076 4663790  64.2318   0.0628  0.50127611 23189
TERRA                   
1 25994U 99068A   26203.28767660  .00000270  00000+0  63830-4 0  9998
2 25994  97.9436 251.4387 0003635 108.9673 322.8872 14.61127534414735
CLUSTER II-FM7 (SAMBA)  
1 26410U 00041A   26201.60182196  .00010308 -30415-5  00000+0 0  9992
2 26410 149.8020  56.9135 9091714 274.4939 359.4480  0.44850593 20460
CLUSTER II-FM8 (TANGO)  
1 26464U 00045B   26202.20476271  .00010744 -27289-5  00000+0 0  9991
2 26464 149.9916  58.1960 9096215 275.6329   2.0911  0.44427498 20465
ODIN                    
1 26702U 01007A   26203.09632161  .00602498  15103-3  16233-2 0  9995
2 26702  97.3694 246.6856 0004574 165.2192 194.9218 15.94340343394927
TIMED                   
1 26998U 01055B   26202.99871388  .00001019  00000+0  95930-4 0  9990
2 26998  74.0673 164.9225 0002377 292.8552  67.2381 14.95355496336026
CORIOLIS                
1 27640U 03001A   26203.00681337  .00000087  00000+0  61467-4 0  9996
2 27640  98.7139 209.3614 0015134 110.9935 249.2862 14.19953324219168
SORCE                   
1 27651U 03004A   26202.93843639  .00002209  00000+0  16801-3 0  9996
2 27651  39.9919  63.3810 0018634 299.6822  60.2117 15.03867162277130
MOST                    
1 27843U 03031D   26202.00166933  .00000031  00000+0  34028-4 0  9995
2 27843  98.7055 209.2568 0010420 149.0494 211.1300 14.21328536195514
SCISAT 1                
1 27858U 03036A   26203.13801118  .00000466  00000+0  64174-4 0  9999
2 27858  73.9301 101.9005 0007006 168.2411 191.8931 14.81484604236628
SWIFT                   
1 28485U 04047A   26203.32133044  .00066195  00000+0  47664-3 0  9991
2 28485  20.5517 273.1802 0002709 102.2547 257.8203 15.71794392192390
HINODE (SOLAR-B)        
1 29479U 06041A   26203.00027503  .00000561  00000+0  10463-3 0  9990
2 29479  98.0548 218.6399 0017620 172.7614 187.3849 14.68664645 59980
SHIJIAN-6 02A (SJ-6 02A)
1 29505U 06046A   26203.24587494  .00004639  00000+0  23623-3 0  9993
2 29505  97.6349 244.5802 0003785  48.0505 312.1051 15.17297813 77585
SHIJIAN-6 02B (SJ-6 02B)
1 29506U 06046B   26203.33508550  .00000455  00000+0  39938-4 0  9999
2 29506  97.7144 232.1755 0012539 310.2880  49.7247 15.01444637 76015
FGRST (GLAST)           
1 33053U 08029A   26202.73383741  .00002698  00000+0  94393-4 0  9997
2 33053  25.5828 324.5793 0008174  17.8617 342.2208 15.24102761   964
SDO                     
1 36395U 10005A   26202.19615476 -.00000097  00000+0  00000+0 0  9998
2 36395  34.7200  85.8242 0001647  43.2128 138.3850  1.00277625 60409
CRYOSAT 2               
1 36508U 10013A   26203.23080301  .00000065  00000+0  15504-4 0  9996
2 36508  92.0353 285.8208 0002495  98.8342 261.3148 14.51899782863166
X-SAT                   
1 37389U 11015C   26203.25789929  .00000233  00000+0  11673-3 0  9990
2 37389  98.3541 178.6152 0012827 237.8422 122.1514 14.25215801792676
GCOM-W1 (SHIZUKU)       
1 38337U 12025A   26202.83867947  .00000352  00000+0  88268-4 0  9993
2 38337  98.2024 142.8702 0001270  80.0845 291.5848 14.57094315754080
NUSTAR                  
1 38358U 12031A   26203.33335648  .00020982  00000+0  12277-2 0  9993
2 38358   6.0263 130.4275 0009216 269.4928 103.9522 15.09079316  1303
NEOSSAT                 
1 39089U 13009D   26203.26171311  .00000113  00000+0  53849-4 0  9994
2 39089  98.4196  22.4634 0011829 137.4448 222.7657 14.35837329701779
BRITE-AUSTRIA           
1 39091U 13009F   26203.03391570  .00000142  00000+0  62806-4 0  9998
2 39091  98.4015  21.6105 0011107 131.8384 228.3753 14.36554513702055
IRIS                    
1 39197U 13033A   26203.11417698  .00000827  00000+0  10068-3 0  9993
2 39197  97.9318  42.2810 0023806 201.5744 158.4470 14.85946768705567
HISAKI (SPRINT-A)       
1 39253U 13049A   26202.96425054  .00000099  00000+0  45225-4 0  9995
2 39253  29.7219  43.1992 0136948 298.7227  59.9644 13.55547184636140
CASSIOPE                
1 39265U 13055A   26203.22668618  .00021795 -46075-6  23374-3 0  9996
2 39265  80.9138  24.0679 0281681 303.9877  53.4879 15.27662734673013
STSAT-3                 
1 39422U 13066G   26203.26817738  .00004966  00000+0  37400-3 0  9992
2 39422  97.6221 172.5910 0008721 276.3559  83.6673 15.02922219689479
